[{"OBJECT_NAME":"STARLINK-36452","OBJECT_ID":"2026-005B","EPOCH":"2026-03-09T12:19:00.540480","MEAN_MOTION":15.27588633,"ECCENTRICITY":0.00033241,"INCLINATION":43.0013,"RA_OF_ASC_NODE":238.6207,"ARG_OF_PERICENTER":284.824,"MEAN_ANOMALY":75.2244,"EPHEMERIS_TYPE":0,"CLASSIFICATION_TYPE":"U","NORAD_CAT_ID":67405,"ELEMENT_SET_NO":999,"REV_AT_EPOCH":867,"BSTAR":0.0012665096,"MEAN_MOTION_DOT":0.00034766,"MEAN_MOTION_DDOT":0},{"OBJECT_NAME":"FENGYUN 1C DEB","OBJECT_ID":"1999-025AQG","EPOCH":"2026-03-09T10:43:06.043872","MEAN_MOTION":15.25746961,"ECCENTRICITY":0.00178142,"INCLINATION":98.9311,"RA_OF_ASC_NODE":250.2123,"ARG_OF_PERICENTER":328.3876,"MEAN_ANOMALY":31.6286,"EPHEMERIS_TYPE":0,"CLASSIFICATION_TYPE":"U","NORAD_CAT_ID":30674,"ELEMENT_SET_NO":999,"REV_AT_EPOCH":98658,"BSTAR":0.015201752,"MEAN_MOTION_DOT":0.00411052,"MEAN_MOTION_DDOT":0}]
